*******************************************************************************
Ephemeris / WWW_USER Mon Mar 24 11:26:28 2025 Pasadena, USA      / Horizons    
*******************************************************************************
Target body name: Lemmon (C/2018 EF9)             {source: JPL#18}
Center body name: Earth (399)                     {source: DE441}
Center-site name: Mauna Kea
*******************************************************************************
Start time      : A.D. 2018-Aug-22 04:55:00.0000 UT      
Stop  time      : A.D. 2018-Aug-22 15:54:00.0000 UT      
Step-size       : 1 minutes
*******************************************************************************
Target pole/equ : undefined
Target radii    : undefined                                                    
Center geodetic : 204.5278, 19.8260847, 4.21024   {E-lon(deg),Lat(deg),Alt(km)}
Center cylindric: 204.5278, 6006.35451, 2151.0229 {E-lon(deg),Dxy(km),Dz(km)}
Center pole/equ : ITRF93                          {East-longitude positive}
Center radii    : 6378.137, 6378.137, 6356.752 km {Equator_a, b, pole_c}       
Target primary  : Sun
Vis. interferer : MOON (R_eq= 1737.400) km        {source: DE441}
Rel. light bend : Sun                             {source: DE441}
Rel. lght bnd GM: 1.3271E+11 km^3/s^2                                          
Small-body perts: Yes                             {source: SB441-N16}
Atmos refraction: NO (AIRLESS)
RA format       : HMS
Time format     : CAL 
Calendar mode   : Mixed Julian/Gregorian
RTS-only print  : NO       
EOP file        : eop.250321.p250617                                           
EOP coverage    : DATA-BASED 1962-JAN-20 TO 2025-MAR-21. PREDICTS-> 2025-JUN-16
Units conversion: 1 au= 149597870.700 km, c= 299792.458 km/s, 1 day= 86400.0 s 
Table cut-offs 1: Elevation (-90.0deg=NO ),Airmass (>38.000=NO), Daylight (YES)
Table cut-offs 2: Solar elongation (  0.0,180.0=NO ),Local Hour Angle( 0.0=NO )
Table cut-offs 3: RA/DEC angular rate (     0.0=NO )                           
*******************************************************************************
Initial IAU76/J2000 heliocentric ecliptic osculating elements (au, days, deg.):
  EPOCH=  2458226.5 ! 2018-Apr-18.0000000 (TDB)    RMSW= n.a.                  
   EC= .9975741722198472   QR= 1.55663257903246    TP= 2458261.6283815675      
   OM= 172.5780664128357   W= 72.61657512148747    IN= 84.69445280104227       
  Equivalent ICRF heliocentric cartesian coordinates (au, au/d):
   X=-1.091857230976521E+00  Y=-4.544188696153424E-01  Z= 1.120998862172552E+00
  VX= 1.630642470498751E-02 VY=-6.481787118028984E-03 VZ= 7.403953065693920E-03
Comet physical (GM= km^3/s^2; RAD= km):                                        
   GM= n.a.                RAD= n.a.                                           
   M1=  8.6      M2=  17.8     k1=  45.25  k2=  5.      PHCOF=  .030           
*******************************************************************************
 Date__(UT)__HR:MN     R.A._________(ICRF)_________DEC
******************************************************
$$SOE
 2018-Aug-22 07:00  m  20 30 26.620635 +70 54 25.13133
 2018-Aug-22 07:01  m  20 30 26.580672 +70 54 23.50687
 2018-Aug-22 07:02  m  20 30 26.540702 +70 54 21.88231
 2018-Aug-22 07:03  m  20 30 26.500726 +70 54 20.25765
 2018-Aug-22 07:04  m  20 30 26.460744 +70 54 18.63288
 2018-Aug-22 07:05  m  20 30 26.420756 +70 54 17.00801
 2018-Aug-22 07:06  m  20 30 26.380762 +70 54 15.38304
 2018-Aug-22 07:07  m  20 30 26.340761 +70 54 13.75797
 2018-Aug-22 07:08  m  20 30 26.300755 +70 54 12.13279
 2018-Aug-22 07:09  m  20 30 26.260743 +70 54 10.50750
 2018-Aug-22 07:10  m  20 30 26.220725 +70 54 08.88212
 2018-Aug-22 07:11  m  20 30 26.180702 +70 54 07.25663
 2018-Aug-22 07:12  m  20 30 26.140673 +70 54 05.63103
 2018-Aug-22 07:13  m  20 30 26.100638 +70 54 04.00533
 2018-Aug-22 07:14  m  20 30 26.060599 +70 54 02.37953
 2018-Aug-22 07:15  m  20 30 26.020553 +70 54 00.75362
 2018-Aug-22 07:16  m  20 30 25.980503 +70 53 59.12760
 2018-Aug-22 07:17  m  20 30 25.940447 +70 53 57.50149
 2018-Aug-22 07:18  m  20 30 25.900387 +70 53 55.87526
 2018-Aug-22 07:19  m  20 30 25.860321 +70 53 54.24893
 2018-Aug-22 07:20  m  20 30 25.820250 +70 53 52.62250
 2018-Aug-22 07:21  m  20 30 25.780175 +70 53 50.99595
 2018-Aug-22 07:22  m  20 30 25.740095 +70 53 49.36931
 2018-Aug-22 07:23  m  20 30 25.700010 +70 53 47.74255
 2018-Aug-22 07:24  m  20 30 25.659920 +70 53 46.11569
 2018-Aug-22 07:25  m  20 30 25.619826 +70 53 44.48873
 2018-Aug-22 07:26  m  20 30 25.579728 +70 53 42.86165
 2018-Aug-22 07:27  m  20 30 25.539625 +70 53 41.23447
 2018-Aug-22 07:28  m  20 30 25.499518 +70 53 39.60719
 2018-Aug-22 07:29  m  20 30 25.459407 +70 53 37.97979
 2018-Aug-22 07:30  m  20 30 25.419291 +70 53 36.35229
 2018-Aug-22 07:31  m  20 30 25.379172 +70 53 34.72469
 2018-Aug-22 07:32  m  20 30 25.339049 +70 53 33.09697
 2018-Aug-22 07:33  m  20 30 25.298921 +70 53 31.46915
 2018-Aug-22 07:34  m  20 30 25.258791 +70 53 29.84122
 2018-Aug-22 07:35  m  20 30 25.218656 +70 53 28.21318
 2018-Aug-22 07:36  m  20 30 25.178518 +70 53 26.58503
 2018-Aug-22 07:37  m  20 30 25.138376 +70 53 24.95678
 2018-Aug-22 07:38  m  20 30 25.098231 +70 53 23.32841
 2018-Aug-22 07:39  m  20 30 25.058082 +70 53 21.69994
 2018-Aug-22 07:40  m  20 30 25.017931 +70 53 20.07136
 2018-Aug-22 07:41  m  20 30 24.977776 +70 53 18.44268
 2018-Aug-22 07:42  m  20 30 24.937618 +70 53 16.81388
 2018-Aug-22 07:43  m  20 30 24.897456 +70 53 15.18497
 2018-Aug-22 07:44  m  20 30 24.857292 +70 53 13.55596
 2018-Aug-22 07:45  m  20 30 24.817126 +70 53 11.92683
 2018-Aug-22 07:46  m  20 30 24.776956 +70 53 10.29760
 2018-Aug-22 07:47  m  20 30 24.736784 +70 53 08.66826
 2018-Aug-22 07:48  m  20 30 24.696609 +70 53 07.03881
 2018-Aug-22 07:49  m  20 30 24.656431 +70 53 05.40924
 2018-Aug-22 07:50  m  20 30 24.616252 +70 53 03.77957
 2018-Aug-22 07:51  m  20 30 24.576070 +70 53 02.14979
 2018-Aug-22 07:52  m  20 30 24.535885 +70 53 00.51990
 2018-Aug-22 07:53  m  20 30 24.495699 +70 52 58.88990
 2018-Aug-22 07:54  m  20 30 24.455510 +70 52 57.25979
 2018-Aug-22 07:55  m  20 30 24.415319 +70 52 55.62957
 2018-Aug-22 07:56  m  20 30 24.375127 +70 52 53.99924
 2018-Aug-22 07:57  m  20 30 24.334932 +70 52 52.36880
 2018-Aug-22 07:58  m  20 30 24.294736 +70 52 50.73824
 2018-Aug-22 07:59  m  20 30 24.254539 +70 52 49.10758
 2018-Aug-22 08:00  m  20 30 24.214339 +70 52 47.47681
 2018-Aug-22 08:01  m  20 30 24.174139 +70 52 45.84592
 2018-Aug-22 08:02  m  20 30 24.133936 +70 52 44.21493
 2018-Aug-22 08:03  m  20 30 24.093733 +70 52 42.58382
 2018-Aug-22 08:04  m  20 30 24.053528 +70 52 40.95260
 2018-Aug-22 08:05  m  20 30 24.013322 +70 52 39.32128
 2018-Aug-22 08:06  m  20 30 23.973115 +70 52 37.68984
 2018-Aug-22 08:07  m  20 30 23.932908 +70 52 36.05829
 2018-Aug-22 08:08  m  20 30 23.892699 +70 52 34.42662
 2018-Aug-22 08:09  m  20 30 23.852489 +70 52 32.79485
 2018-Aug-22 08:10  m  20 30 23.812279 +70 52 31.16296
 2018-Aug-22 08:11  m  20 30 23.772068 +70 52 29.53097
 2018-Aug-22 08:12  m  20 30 23.731857 +70 52 27.89886
 2018-Aug-22 08:13  m  20 30 23.691645 +70 52 26.26664
 2018-Aug-22 08:14  m  20 30 23.651433 +70 52 24.63431
 2018-Aug-22 08:15  m  20 30 23.611220 +70 52 23.00186
 2018-Aug-22 08:16  m  20 30 23.571008 +70 52 21.36931
 2018-Aug-22 08:17  m  20 30 23.530795 +70 52 19.73664
 2018-Aug-22 08:18  m  20 30 23.490582 +70 52 18.10386
 2018-Aug-22 08:19  m  20 30 23.450370 +70 52 16.47097
 2018-Aug-22 08:20  m  20 30 23.410157 +70 52 14.83797
 2018-Aug-22 08:21  m  20 30 23.369945 +70 52 13.20485
 2018-Aug-22 08:22  m  20 30 23.329733 +70 52 11.57162
 2018-Aug-22 08:23  m  20 30 23.289522 +70 52 09.93828
 2018-Aug-22 08:24  m  20 30 23.249311 +70 52 08.30483
 2018-Aug-22 08:25  m  20 30 23.209101 +70 52 06.67126
 2018-Aug-22 08:26  m  20 30 23.168891 +70 52 05.03759
 2018-Aug-22 08:27  m  20 30 23.128682 +70 52 03.40380
 2018-Aug-22 08:28  m  20 30 23.088474 +70 52 01.76989
 2018-Aug-22 08:29  m  20 30 23.048267 +70 52 00.13588
 2018-Aug-22 08:30  m  20 30 23.008061 +70 51 58.50175
 2018-Aug-22 08:31  m  20 30 22.967856 +70 51 56.86751
 2018-Aug-22 08:32  m  20 30 22.927653 +70 51 55.23315
 2018-Aug-22 08:33  m  20 30 22.887450 +70 51 53.59869
 2018-Aug-22 08:34  m  20 30 22.847250 +70 51 51.96411
 2018-Aug-22 08:35  m  20 30 22.807050 +70 51 50.32942
 2018-Aug-22 08:36  m  20 30 22.766852 +70 51 48.69461
 2018-Aug-22 08:37  m  20 30 22.726656 +70 51 47.05970
 2018-Aug-22 08:38  m  20 30 22.686461 +70 51 45.42467
 2018-Aug-22 08:39  m  20 30 22.646269 +70 51 43.78952
 2018-Aug-22 08:40  m  20 30 22.606078 +70 51 42.15427
 2018-Aug-22 08:41  m  20 30 22.565889 +70 51 40.51890
 2018-Aug-22 08:42  m  20 30 22.525703 +70 51 38.88342
 2018-Aug-22 08:43  m  20 30 22.485518 +70 51 37.24782
 2018-Aug-22 08:44  m  20 30 22.445336 +70 51 35.61211
 2018-Aug-22 08:45  m  20 30 22.405156 +70 51 33.97629
 2018-Aug-22 08:46  m  20 30 22.364979 +70 51 32.34036
 2018-Aug-22 08:47  m  20 30 22.324804 +70 51 30.70431
 2018-Aug-22 08:48  m  20 30 22.284632 +70 51 29.06815
 2018-Aug-22 08:49  m  20 30 22.244462 +70 51 27.43188
 2018-Aug-22 08:50  t  20 30 22.204296 +70 51 25.79549
 2018-Aug-22 08:51  e  20 30 22.164132 +70 51 24.15899
 2018-Aug-22 08:52  m  20 30 22.123971 +70 51 22.52238
 2018-Aug-22 08:53  m  20 30 22.083813 +70 51 20.88565
 2018-Aug-22 08:54  m  20 30 22.043659 +70 51 19.24882
 2018-Aug-22 08:55  m  20 30 22.003507 +70 51 17.61187
 2018-Aug-22 08:56  m  20 30 21.963359 +70 51 15.97480
 2018-Aug-22 08:57  m  20 30 21.923214 +70 51 14.33762
 2018-Aug-22 08:58  m  20 30 21.883073 +70 51 12.70033
 2018-Aug-22 08:59  m  20 30 21.842936 +70 51 11.06293
 2018-Aug-22 09:00  m  20 30 21.802802 +70 51 09.42541
 2018-Aug-22 09:01  m  20 30 21.762672 +70 51 07.78778
 2018-Aug-22 09:02  m  20 30 21.722545 +70 51 06.15004
 2018-Aug-22 09:03  m  20 30 21.682423 +70 51 04.51219
 2018-Aug-22 09:04  m  20 30 21.642305 +70 51 02.87422
